BIOMASS                 
1 63772U 25090A   26190.94544830  .00000657  00000+0  12425-3 0  9990
2 63772  98.0728  17.9248 0001383  92.7222 267.4141 14.67535603 64028
GOSAT-GW (IBUKI GW)     
1 64694U 25141A   26191.84911666 -.00000056  00000+0 -14526-5 0  9997
2 64694  98.0566 128.7816 0001452  83.1300 277.0069 14.67554238 55315
IONOSFERA-M 3           
1 64876U 25155A   26191.82601714  .00000012  00000+0  24951-4 0  9994
2 64876  98.6037 153.1375 0002156 119.2213 240.9180 14.21490351 49764
IONOSFERA-M 4           
1 64877U 25155B   26191.86081824  .00000013  00000+0  25713-4 0  9991
2 64877  98.6036 153.0886 0001754 103.8927 256.2446 14.21492781 49768
MICROCARB               
1 64899U 25156A   26190.70804273  .00000340  00000+0  60786-4 0  9991
2 64899  98.0075 267.4872 0017187 188.1611 171.9320 14.72881364 51286
CO3D 3                  
1 64900U 25156B   26191.75218752  .00002745  00000+0  12981-3 0  9995
2 64900  97.4336 270.1062 0001836  99.8925 260.2517 15.20214951 53114
CO3D 4                  
1 64901U 25156C   26191.22576283  .00000847  00000+0  42254-4 0  9992
2 64901  97.4337 269.5877 0001227 162.5388 197.5889 15.20205175 53030
CO3D 2                  
1 64902U 25156D   26191.71899922  .00002696  00000+0  12762-3 0  9999
2 64902  97.4336 269.9724 0001322  88.0610 272.0776 15.20199217 53102
CO3D 1                  
1 64903U 25156E   26191.71915176  .00002676  00000+0  12671-3 0  9997
2 64903  97.4336 269.9726 0001313 100.3210 259.8173 15.20202650 53109
PRSC-S1                 
1 65055U 25164A   26191.86439777  .00002146  00000+0  15409-3 0  9993
2 65055  41.1290 154.4429 0006017 169.4007 190.6935 15.06613581 52006
SENTINEL-6B             
1 66514U 25264A   26191.11823223 -.00000069  00000+0 -35219-4 0  9992
2 66514  66.0414  87.5519 0007877 268.8168  91.1945 12.80930089 30101
CAS500-3                
1 66655U 25274F   26191.27511966  .00000789  00000+0  90984-4 0  9991
2 66655  97.7440 118.8011 0006573  51.3120 308.8684 14.88376906 33582
CSG-3                   
1 67304U 26001A   26190.74755735  .00000204  00000+0  32153-4 0  9993
2 67304  97.8893  14.0231 0001499  92.4764 267.6621 14.82149656 27805
PRSC-E03                
1 68835U 26092A   26191.78129919  .00001604  00000+0  11293-3 0  9993
2 68835  38.0023 310.5396 0004502 223.4596 136.5811 15.06795926 11510
CAS500-2                
1 69013U 26100AK  26191.18222715  .00004412  00000+0  20272-3 0  9991
2 69013  97.3877  88.6034 0008100 313.0008  47.0548 15.20866161 10303
