OBJECT_NAME,OBJECT_ID,EPOCH,MEAN_MOTION,ECCENTRICITY,INCLINATION,RA_OF_ASC_NODE,ARG_OF_PERICENTER,MEAN_ANOMALY,EPHEMERIS_TYPE,CLASSIFICATION_TYPE,NORAD_CAT_ID,ELEMENT_SET_NO,REV_AT_EPOCH,BSTAR,MEAN_MOTION_DOT,MEAN_MOTION_DDOT
BIOMASS,2025-090A,2026-07-09T22:41:26.733120,14.67535603,.00013835,98.0728,17.9248,92.7222,267.4141,0,U,63772,999,6402,.12425381E-3,.657E-5,0
GOSAT-GW (IBUKI GW),2025-141A,2026-07-10T20:22:43.679424,14.67554238,.0001452,98.0566,128.7816,83.1300,277.0069,0,U,64694,999,5531,-.14526E-5,-.56E-6,0
IONOSFERA-M 3,2025-155A,2026-07-10T19:49:27.880896,14.21490351,.0002156,98.6037,153.1375,119.2213,240.9180,0,U,64876,999,4976,.24951E-4,.12E-6,0
IONOSFERA-M 4,2025-155B,2026-07-10T20:39:34.695936,14.21492781,.0001754,98.6036,153.0886,103.8927,256.2446,0,U,64877,999,4976,.25713E-4,.13E-6,0
MICROCARB,2025-156A,2026-07-09T16:59:34.891872,14.72881364,.00171873,98.0075,267.4872,188.1611,171.9320,0,U,64899,999,5128,.60786372E-4,.34E-5,0
CO3D 3,2025-156B,2026-07-10T18:03:09.001728,15.20214951,.0001836,97.4336,270.1062,99.8925,260.2517,0,U,64900,999,5311,.12981E-3,.2745E-4,0
CO3D 4,2025-156C,2026-07-10T05:25:05.908512,15.20205175,.00012271,97.4337,269.5877,162.5388,197.5889,0,U,64901,999,5303,.42253728E-4,.847E-5,0
CO3D 2,2025-156D,2026-07-10T17:15:21.532608,15.20199217,.0001322,97.4336,269.9724,88.0610,272.0776,0,U,64902,999,5310,.12762E-3,.2696E-4,0
CO3D 1,2025-156E,2026-07-10T17:15:34.712064,15.20202650,.0001313,97.4336,269.9726,100.3210,259.8173,0,U,64903,999,5310,.12671E-3,.2676E-4,0
PRSC-S1,2025-164A,2026-07-10T20:44:43.967328,15.06613581,.0006017,41.1290,154.4429,169.4007,190.6935,0,U,65055,999,5200,.15409E-3,.2146E-4,0
SENTINEL-6B,2025-264A,2026-07-10T02:50:15.264672,12.80930089,.00078778,66.0414,87.5519,268.8168,91.1945,0,U,66514,999,3010,-.35218925E-4,-.69E-6,0
CAS500-3,2025-274F,2026-07-10T06:36:10.338624,14.88376906,.00065732,97.7440,118.8011,51.3120,308.8684,0,U,66655,999,3358,.9098435E-4,.789E-5,0
CSG-3,2026-001A,2026-07-09T17:56:28.955040,14.82149656,.00014993,97.8893,14.0231,92.4764,267.6621,0,U,67304,999,2780,.3215298E-4,.204E-5,0
PRSC-E03,2026-092A,2026-07-10T18:45:04.250016,15.06795926,.0004502,38.0023,310.5396,223.4596,136.5811,0,U,68835,999,1151,.11293E-3,.1604E-4,0
CAS500-2,2026-100AK,2026-07-10T04:22:24.425760,15.20866161,.00081008,97.3877,88.6034,313.0008,47.0548,0,U,69013,999,1030,.20272055E-3,.4412E-4,0
